NORAD_CAT_ID,OBJECT_NAME,OBJECT_TYPE,EPOCH,MEAN_MOTION,ECCENTRICITY,INCLINATION,RA_OF_ASC_NODE,ARG_OF_PERICENTER,MEAN_ANOMALY,BSTAR,MEAN_MOTION_DOT,MEAN_MOTION_DDOT,TLE_LINE0,TLE_LINE1,TLE_LINE2,SEMIMAJOR_AXIS,PERIOD,APOGEE,PERIGEE,DECAYED
52365.0,STARLINK-3874,PAYLOAD,2024-07-25 17:44:20,15.08843489,0.0001561,53.2161,326.4886,100.5904,259.5264,-5.1714e-05,-1.111e-05,0.0,0 STARLINK-3874,1 52365U 22045AL  24207.73912602 -.00001111  00000-0 -51714-4 0  9997,2 52365  53.2161 326.4886 0001561 100.5904 259.5264 15.08843489126552,6917.87,95.437,540.815,538.655,0.0
52365.0,STARLINK-3874,PAYLOAD,2024-07-26 08:02:49,15.08836236,0.0001386,53.2167,323.8127,102.2413,257.8735,0.00035591,5.38e-05,0.0,0 STARLINK-3874,1 52365U 22045AL  24208.33529181  .00005380  00000-0  35591-3 0  9994,2 52365  53.2167 323.8127 0001386 102.2413 257.8735 15.08836236126642,6917.892,95.438,540.716,538.798,0.0
52365.0,STARLINK-3874,PAYLOAD,2024-07-26 15:59:44,15.08841077,0.0001495,53.2173,322.3262,98.2865,261.8297,0.00036564,5.536e-05,0.0,0 STARLINK-3874,1 52365U 22045AL  24208.66649115  .00005536  00000-0  36564-3 0  9994,2 52365  53.2173 322.3262 0001495  98.2865 261.8297 15.08841077126691,6917.877,95.437,540.776,538.708,0.0
52365.0,STARLINK-3874,PAYLOAD,2024-07-27 15:50:32,15.08833533,0.0001581,53.2162,317.8691,85.2575,274.8598,-4.1175e-06,-3.54e-06,0.0,0 STARLINK-3874,1 52365U 22045AL  24209.66009741 -.00000354  00000-0 -41175-5 0  9991,2 52365  53.2162 317.8691 0001581  85.2575 274.8598 15.08833533126847,6917.9,95.438,540.859,538.671,0.0
52365.0,STARLINK-3874,PAYLOAD,2024-07-27 23:47:27,15.08843443,0.0001719,53.2163,316.3817,85.071,275.0478,0.00014575,2.033e-05,0.0,0 STARLINK-3874,1 52365U 22045AL  24209.99129436  .00002033  00000-0  14575-3 0  9997,2 52365  53.2163 316.3817 0001719  85.0710 275.0478 15.08843443126890,6917.87,95.437,540.924,538.546,0.0
52365.0,STARLINK-3874,PAYLOAD,2024-07-28 14:05:56,15.08835492,0.0001447,53.2179,313.7095,101.4854,258.6301,-9.4023e-06,-4.38e-06,0.0,0 STARLINK-3874,1 52365U 22045AL  24210.58745741 -.00000438  00000-0 -94023-5 0  9994,2 52365  53.2179 313.7095 0001447 101.4854 258.6301 15.08835492126983,6917.894,95.438,540.76,538.758,0.0
52365.0,STARLINK-3874,PAYLOAD,2024-07-28 15:41:19,15.0883814,0.0001502,53.219,313.4115,100.838,259.2781,2.4741e-05,1.06e-06,0.0,0 STARLINK-3874,1 52365U 22045AL  24210.65369638  .00000106  00000-0  24741-4 0  9998,2 52365  53.2190 313.4115 0001502 100.8380 259.2781 15.08838140126998,6917.886,95.438,540.79,538.712,0.0
52365.0,STARLINK-3874,PAYLOAD,2024-07-28 23:38:14,15.08848247,0.0001464,53.2189,311.9244,99.9832,260.1325,0.00018258,2.62e-05,0.0,0 STARLINK-3874,1 52365U 22045AL  24210.98489162  .00002620  00000-0  18258-3 0  9997,2 52365  53.2189 311.9244 0001464  99.9832 260.1325 15.08848247127040,6917.855,95.437,540.733,538.707,0.0
52365.0,STARLINK-3874,PAYLOAD,2024-07-29 17:07:29,15.08842105,0.0001384,53.2178,308.6505,89.0365,271.0785,5.8493e-05,6.43e-06,0.0,0 STARLINK-3874,1 52365U 22045AL  24211.71353631  .00000643  00000-0  58493-4 0  9999,2 52365  53.2178 308.6505 0001384  89.0365 271.0785 15.08842105127153,6917.874,95.437,540.696,538.782,0.0
52365.0,STARLINK-3874,PAYLOAD,2024-07-30 10:36:44,15.08833697,0.0001578,53.2193,305.3836,102.8971,257.2198,3.4853e-05,2.67e-06,0.0,0 STARLINK-3874,1 52365U 22045AL  24212.44218066  .00000267  00000-0  34853-4 0  9998,2 52365  53.2193 305.3836 0001578 102.8971 257.2198 15.08833697127265,6917.9,95.438,540.856,538.673,0.0
52365.0,STARLINK-3874,PAYLOAD,2024-07-31 13:38:17,15.08846804,0.0001046,53.2166,300.3235,88.8442,271.267,-6.4591e-05,-1.316e-05,0.0,0 STARLINK-3874,1 52365U 22045AL  24213.56825556 -.00001316  00000-0 -64591-4 0  9990,2 52365  53.2166 300.3235 0001046  88.8442 271.2670 15.08846804127433,6917.86,95.437,540.448,539.001,0.0
52365.0,STARLINK-3874,PAYLOAD,2024-07-31 15:13:40,15.08850016,9.74e-05,53.2163,300.0287,90.7711,269.3392,-0.0002045,-3.542e-05,0.0,0 STARLINK-3874,1 52365U 22045AL  24213.63449395 -.00003542  00000-0 -20450-3 0  9999,2 52365  53.2163 300.0287 0000974  90.7711 269.3392 15.08850016127444,6917.85,95.437,540.389,539.041,0.0
52365.0,STARLINK-3874,PAYLOAD,2024-08-01 11:53:41,15.08851929,0.0001329,53.2159,296.1619,75.5679,284.5461,0.00047763,7.324e-05,0.0,0 STARLINK-3874,1 52365U 22045AL  24214.49561846  .00007324  00000-0  47763-3 0  9996,2 52365  53.2159 296.1619 0001329  75.5679 284.5461 15.08851929127576,6917.844,95.437,540.628,538.79,0.0
52365.0,STARLINK-3874,PAYLOAD,2024-08-01 23:01:22,15.08866655,0.0001384,53.2163,294.0798,77.7811,282.3336,0.00075903,0.00011821,0.0,0 STARLINK-3874,1 52365U 22045AL  24214.95929105  .00011821  00000-0  75903-3 0  9997,2 52365  53.2163 294.0798 0001384  77.7811 282.3336 15.08866655127646,6917.799,95.436,540.621,538.706,0.0
52365.0,STARLINK-3874,PAYLOAD,2024-08-02 11:44:28,15.08824019,0.0001457,53.2174,291.7002,91.8333,268.2826,-0.00047368,-7.815e-05,0.0,0 STARLINK-3874,1 52365U 22045AL  24215.48922041 -.00007815  00000-0 -47368-3 0  9992,2 52365  53.2174 291.7002 0001457  91.8333 268.2826 15.08824019127721,6917.929,95.439,540.802,538.786,0.0
52365.0,STARLINK-3874,PAYLOAD,2024-08-03 05:13:43,15.08841087,0.0001499,53.2178,288.4301,94.1464,265.97,0.0011054,0.00017349,0.0,0 STARLINK-3874,1 52365U 22045AL  24216.21786739  .00017349  00000-0  11054-2 0  9999,2 52365  53.2178 288.4301 0001499  94.1464 265.9700 15.08841087127838,6917.877,95.437,540.779,538.705,0.0
52365.0,STARLINK-3874,PAYLOAD,2024-08-03 11:35:16,15.08855418,0.0001464,53.2178,287.2413,92.0701,268.0459,0.0012685,0.00019966,0.0,0 STARLINK-3874,1 52365U 22045AL  24216.48282521  .00019966  00000-0  12685-2 0  9996,2 52365  53.2178 287.2413 0001464  92.0701 268.0459 15.08855418127874,6917.833,95.437,540.711,538.685,0.0
52365.0,STARLINK-3874,PAYLOAD,2024-08-04 05:04:30,15.08864569,0.0001476,53.2167,283.9691,91.2194,268.8967,0.00093383,0.00014615,0.0,0 STARLINK-3874,1 52365U 22045AL  24217.21146112  .00014615  00000-0  93383-3 0  9994,2 52365  53.2167 283.9691 0001476  91.2194 268.8967 15.08864569127984,6917.805,95.436,540.691,538.649,0.0
52365.0,STARLINK-3874,PAYLOAD,2024-08-04 11:26:02,15.08839488,0.0001302,53.2168,282.7815,101.4775,258.6364,0.0012226,0.00019223,0.0,0 STARLINK-3874,1 52365U 22045AL  24217.47642262  .00019223  00000-0  12226-2 0  9995,2 52365  53.2168 282.7815 0001302 101.4775 258.6364 15.08839488128023,6917.882,95.438,540.648,538.846,0.0
52365.0,STARLINK-3874,PAYLOAD,2024-08-04 14:36:49,15.08845177,0.000125,53.2162,282.1859,97.4375,262.676,0.0011003,0.00017269,0.0,0 STARLINK-3874,1 52365U 22045AL  24217.60890214  .00017269  00000-0  11003-2 0  9992,2 52365  53.2162 282.1859 0001250  97.4375 262.6760 15.08845177128040,6917.865,95.437,540.594,538.865,0.0
52365.0,STARLINK-3874,PAYLOAD,2024-08-05 11:16:49,15.08861121,0.0001312,53.2162,278.319,91.1295,268.9848,0.00074326,0.00011568,0.0,0 STARLINK-3874,1 52365U 22045AL  24218.47001556  .00011568  00000-0  74326-3 0  9995,2 52365  53.2162 278.3190 0001312  91.1295 268.9848 15.08861121128173,6917.816,95.436,540.588,538.773,0.0
52365.0,STARLINK-3874,PAYLOAD,2024-08-06 04:46:03,15.08824489,0.0001373,53.215,275.0486,86.2189,273.896,-0.00079855,-0.00012969,0.0,0 STARLINK-3874,1 52365U 22045AL  24219.19865516 -.00012969  00000-0 -79855-3 0  9999,2 52365  53.2150 275.0486 0001373  86.2189 273.8960 15.08824489128284,6917.928,95.439,540.743,538.843,0.0
52365.0,STARLINK-3874,PAYLOAD,2024-08-06 14:18:23,15.08822793,0.0001533,53.216,273.2641,83.6294,276.4872,-0.0001198,-2.193e-05,0.0,0 STARLINK-3874,1 52365U 22045AL  24219.59610145 -.00002193  00000-0 -11980-3 0  9992,2 52365  53.2160 273.2641 0001533  83.6294 276.4872 15.08822793128348,6917.933,95.439,540.859,538.737,0.0
52365.0,STARLINK-3874,PAYLOAD,2024-08-07 12:33:47,15.08853596,0.0001437,53.2151,269.1011,75.8329,284.2823,0.0011514,0.00018091,0.0,0 STARLINK-3874,1 52365U 22045AL  24220.52346433  .00018091  00000-0  11514-2 0  9997,2 52365  53.2151 269.1011 0001437  75.8329 284.2823 15.08853596128481,6917.839,95.437,540.698,538.71,0.0
52365.0,STARLINK-3874,PAYLOAD,2024-08-08 09:13:48,15.08850152,0.0001604,53.2152,265.2361,68.9452,291.1712,0.00045243,6.922e-05,0.0,0 STARLINK-3874,1 52365U 22045AL  24221.38458340  .00006922  00000-0  45243-3 0  9990,2 52365  53.2152 265.2361 0001604  68.9452 291.1712 15.08850152128617,6917.849,95.437,540.824,538.605,0.0
52365.0,STARLINK-3874,PAYLOAD,2024-08-09 12:15:21,15.08846726,0.0001587,53.2158,260.1793,77.4875,282.6294,0.00014421,2.008e-05,0.0,0 STARLINK-3874,1 52365U 22045AL  24222.51066159  .00002008  00000-0  14421-3 0  9994,2 52365  53.2158 260.1793 0001587  77.4875 282.6294 15.08846726128780,6917.86,95.437,540.823,538.627,0.0
52365.0,STARLINK-3874,PAYLOAD,2024-08-09 20:12:16,15.08851065,0.000152,53.2161,258.6924,80.5269,279.5895,0.00017645,2.522e-05,0.0,0 STARLINK-3874,1 52365U 22045AL  24222.84185888  .00002522  00000-0  17645-3 0  9993,2 52365  53.2161 258.6924 0001520  80.5269 279.5895 15.08851065128831,6917.847,95.437,540.763,538.66,0.0
52365.0,STARLINK-3874,PAYLOAD,2024-08-10 10:30:45,15.08842499,0.0001627,53.2178,256.0157,102.4269,257.6905,5.8305e-05,6.4e-06,0.0,0 STARLINK-3874,1 52365U 22045AL  24223.43802166  .00000640  00000-0  58305-4 0  9992,2 52365  53.2178 256.0157 0001627 102.4269 257.6905 15.08842499128921,6917.873,95.437,540.863,538.612,0.0
52365.0,STARLINK-3874,PAYLOAD,2024-08-11 11:56:55,15.08844902,0.0001513,53.2168,251.2576,87.707,272.4095,9.4144e-05,1.211e-05,0.0,0 STARLINK-3874,1 52365U 22045AL  24224.49786075  .00001211  00000-0  94144-4 0  9995,2 52365  53.2168 251.2576 0001513  87.7070 272.4095 15.08844902129085,6917.865,95.437,540.777,538.684,0.0
52365.0,STARLINK-3874,PAYLOAD,2024-08-11 18:18:26,15.0885911,0.0001526,53.2167,250.0714,81.4319,278.6846,0.00026139,3.877e-05,0.0,0 STARLINK-3874,1 52365U 22045AL  24224.76281177  .00003877  00000-0  26139-3 0  9996,2 52365  53.2167 250.0714 0001526  81.4319 278.6846 15.08859110129120,6917.822,95.436,540.743,538.631,0.0
